{"type": "FeatureCollection", "features": [ {"type": "Feature", "properties": {"norad_id": 34079, "name": "IRIDIUM 33 DEB", "group": "iridium-33-debris", "lat": -78.5567029173021, "lon": -159.72995301122103, "alt_km": 622.7458920643339, "timestamp": "2025-12-27T07:26:25.605469+00:00", "meta": {"OBJECT_NAME": "IRIDIUM 33 DEB", "OBJECT_ID": "1997-051CN", "EPOCH": "2025-12-27T00:04:28.360992", "MEAN_MOTION": 14.83925003, "ECCENTRICITY": 0.00037586, "INCLINATION": 86.3778, "RA_OF_ASC_NODE": 2.173, "ARG_OF_PERICENTER": 312.3026, "MEAN_ANOMALY": 108.3555, "EPHEMERIS_TYPE": 0, "CLASSIFICATION_TYPE": "U", "NORAD_CAT_ID": 34079, "ELEMENT_SET_NO": 999, "REV_AT_EPOCH": 89189, "BSTAR": 0.0023086983, "MEAN_MOTION_DOT": 0.00019238, "MEAN_MOTION_DDOT": 0}, "tle": {"line1": "1 34079U 97051CN  25361.00310603  .00019238  00000+0  23087-2 0  9999", "line2": "2 34079  86.3778   2.1730 0003758 312.3026 108.3555 14.83925003891894"}}, "geometry": {"type": "Point", "coordinates": [-159.72995301122103, -78.5567029173021]}}, {"type": "Feature", "properties": {"norad_id": 34088, "name": "IRIDIUM 33 DEB", "group": "iridium-33-debris", "lat": 48.6840612347297, "lon": 28.14955696772166, "alt_km": 586.6385075196613, "timestamp": "2025-12-27T07:26:25.605479+00:00", "meta": {"OBJECT_NAME": "IRIDIUM 33 DEB", "OBJECT_ID": "1997-051CX", "EPOCH": "2025-12-26T14:04:54.130368", "MEAN_MOTION": 14.92012615, "ECCENTRICITY": 0.000718, "INCLINATION": 86.3846, "RA_OF_ASC_NODE": 24.3573, "ARG_OF_PERICENTER": 134.1016, "MEAN_ANOMALY": 352.4907, "EPHEMERIS_TYPE": 0, "CLASSIFICATION_TYPE": "U", "NORAD_CAT_ID": 34088, "ELEMENT_SET_NO": 999, "REV_AT_EPOCH": 88948, "BSTAR": 0.0024249, "MEAN_MOTION_DOT": 0.00024675, "MEAN_MOTION_DDOT": 0}, "tle": {"line1": "1 34088U 97051CX  25360.58673762  .00024675  00000+0  24249-2 0  9991", "line2": "2 34088  86.3846  24.3573 0007180 134.1016 352.4907 14.92012615889484"}}, "geometry": {"type": "Point", "coordinates": [28.14955696772166, 48.6840612347297]}}, {"type": "Feature", "properties": {"norad_id": 34091, "name": "IRIDIUM 33 DEB", "group": "iridium-33-debris", "lat": 75.37100840792667, "lon": -134.03750846547354, "alt_km": 630.596114723392, "timestamp": "2025-12-27T07:26:25.605490+00:00", "meta": {"OBJECT_NAME": "IRIDIUM 33 DEB", "OBJECT_ID": "1997-051DA", "EPOCH": "2025-12-26T21:15:09.157824", "MEAN_MOTION": 14.82875127, "ECCENTRICITY": 0.00343132, "INCLINATION": 86.3406, "RA_OF_ASC_NODE": 60.3501, "ARG_OF_PERICENTER": 242.6153, "MEAN_ANOMALY": 117.1577, "EPHEMERIS_TYPE": 0, "CLASSIFICATION_TYPE": "U", "NORAD_CAT_ID": 34091, "ELEMENT_SET_NO": 999, "REV_AT_EPOCH": 88076, "BSTAR": 0.005713469, "MEAN_MOTION_DOT": 0.00047038, "MEAN_MOTION_DDOT": 0}, "tle": {"line1": "1 34091U 97051DA  25360.88552266  .00047038  00000+0  57135-2 0  9991", "line2": "2 34091  86.3406  60.3501 0034313 242.6153 117.1577 14.82875127880761"}}, "geometry": {"type": "Point", "coordinates": [-134.03750846547354, 75.37100840792667]}}, {"type": "Feature", "properties": {"norad_id": 34097, "name": "IRIDIUM 33 DEB", "group": "iridium-33-debris", "lat": 24.9574116945669, "lon": -3.252316072877555, "alt_km": 755.1387711314856, "timestamp": "2025-12-27T07:26:25.605500+00:00", "meta": {"OBJECT_NAME": "IRIDIUM 33 DEB", "OBJECT_ID": "1997-051DG", "EPOCH": "2025-12-26T22:57:25.331616", "MEAN_MOTION": 14.34897502, "ECCENTRICITY": 0.00811652, "INCLINATION": 86.2009, "RA_OF_ASC_NODE": 355.1315, "ARG_OF_PERICENTER": 315.5596, "MEAN_ANOMALY": 43.9106, "EPHEMERIS_TYPE": 0, "CLASSIFICATION_TYPE": "U", "NORAD_CAT_ID": 34097, "ELEMENT_SET_NO": 999, "REV_AT_EPOCH": 87323, "BSTAR": 0.0019361756, "MEAN_MOTION_DOT": 5.728e-05, "MEAN_MOTION_DDOT": 0}, "tle": {"line1": "1 34097U 97051DG  25360.95654319  .00005728  00000+0  19362-2 0  9997", "line2": "2 34097  86.2009 355.1315 0081165 315.5596  43.9106 14.34897502873237"}}, "geometry": {"type": "Point", "coordinates": [-3.252316072877555, 24.9574116945669]}}, {"type": "Feature", "properties": {"norad_id": 34145, "name": "IRIDIUM 33 DEB", "group": "iridium-33-debris", "lat": -34.02811126383677, "lon": -36.526058906164764, "alt_km": 750.807942407082, "timestamp": "2025-12-27T07:26:25.605511+00:00", "meta": {"OBJECT_NAME": "IRIDIUM 33 DEB", "OBJECT_ID": "1997-051DY", "EPOCH": "2025-12-26T14:56:53.035584", "MEAN_MOTION": 14.42393887, "ECCENTRICITY": 0.0055399, "INCLINATION": 86.2128, "RA_OF_ASC_NODE": 326.3433, "ARG_OF_PERICENTER": 49.7595, "MEAN_ANOMALY": 310.8432, "EPHEMERIS_TYPE": 0, "CLASSIFICATION_TYPE": "U", "NORAD_CAT_ID": 34145, "ELEMENT_SET_NO": 999, "REV_AT_EPOCH": 87838, "BSTAR": 0.0014608, "MEAN_MOTION_DOT": 4.939e-05, "MEAN_MOTION_DDOT": 0}, "tle": {"line1": "1 34145U 97051DY  25360.62283606  .00004939  00000+0  14608-2 0  9993", "line2": "2 34145  86.2128 326.3433 0055399  49.7595 310.8432 14.42393887878384"}}, "geometry": {"type": "Point", "coordinates": [-36.526058906164764, -34.02811126383677]}}, {"type": "Feature", "properties": {"norad_id": 34146, "name": "IRIDIUM 33 DEB", "group": "iridium-33-debris", "lat": -41.78631749684675, "lon": -19.965801288910036, "alt_km": 751.1589175249037, "timestamp": "2025-12-27T07:26:25.605522+00:00", "meta": {"OBJECT_NAME": "IRIDIUM 33 DEB", "OBJECT_ID": "1997-051DZ", "EPOCH": "2025-12-26T05:10:53.931072", "MEAN_MOTION": 14.49135058, "ECCENTRICITY": 0.0027049, "INCLINATION": 86.2845, "RA_OF_ASC_NODE": 343.8464, "ARG_OF_PERICENTER": 175.3009, "MEAN_ANOMALY": 198.4852, "EPHEMERIS_TYPE": 0, "CLASSIFICATION_TYPE": "U", "NORAD_CAT_ID": 34146, "ELEMENT_SET_NO": 999, "REV_AT_EPOCH": 88302, "BSTAR": 0.00092782, "MEAN_MOTION_DOT": 3.563e-05, "MEAN_MOTION_DDOT": 0}, "tle": {"line1": "1 34146U 97051DZ  25360.21590198  .00003563  00000+0  92782-3 0  9998", "line2": "2 34146  86.2845 343.8464 0027049 175.3009 198.4852 14.49135058883020"}}, "geometry": {"type": "Point", "coordinates": [-19.965801288910036, -41.78631749684675]}}, {"type": "Feature", "properties": {"norad_id": 34159, "name": "IRIDIUM 33 DEB", "group": "iridium-33-debris", "lat": -18.39025509175745, "lon": -136.75607146186084, "alt_km": 753.7358983922404, "timestamp": "2025-12-27T07:26:25.605533+00:00", "meta": {"OBJECT_NAME": "IRIDIUM 33 DEB", "OBJECT_ID": "1997-051EN", "EPOCH": "2025-12-26T02:08:20.180544", "MEAN_MOTION": 14.38525461, "ECCENTRICITY": 0.00262795, "INCLINATION": 86.3493, "RA_OF_ASC_NODE": 42.5483, "ARG_OF_PERICENTER": 240.6679, "MEAN_ANOMALY": 119.1893, "EPHEMERIS_TYPE": 0, "CLASSIFICATION_TYPE": "U", "NORAD_CAT_ID": 34159, "ELEMENT_SET_NO": 999, "REV_AT_EPOCH": 88151, "BSTAR": 0.00037825721, "MEAN_MOTION_DOT": 1.179e-05, "MEAN_MOTION_DDOT": 0}, "tle": {"line1": "1 34159U 97051EN  25360.08912246  .00001179  00000+0  37826-3 0  9998", "line2": "2 34159  86.3493  42.5483 0026279 240.6679 119.1893 14.38525461881517"}}, "geometry": {"type": "Point", "coordinates": [-136.75607146186084, -18.39025509175745]}}, {"type": "Feature", "properties": {"norad_id": 34350, "name": "IRIDIUM 33 DEB", "group": "iridium-33-debris", "lat": -48.408084758598825, "lon": -179.36603453182187, "alt_km": 760.0159145175921, "timestamp": "2025-12-27T07:26:25.605544+00:00", "meta": {"OBJECT_NAME": "IRIDIUM 33 DEB", "OBJECT_ID": "1997-051ES", "EPOCH": "2025-12-26T11:11:35.511072", "MEAN_MOTION": 14.45418943, "ECCENTRICITY": 0.0023531, "INCLINATION": 86.3274, "RA_OF_ASC_NODE": 356.8502, "ARG_OF_PERICENTER": 93.2383, "MEAN_ANOMALY": 67.9711, "EPHEMERIS_TYPE": 0, "CLASSIFICATION_TYPE": "U", "NORAD_CAT_ID": 34350, "ELEMENT_SET_NO": 999, "REV_AT_EPOCH": 88491, "BSTAR": 0.00036255, "MEAN_MOTION_DOT": 1.3e-05, "MEAN_MOTION_DDOT": 0}, "tle": {"line1": "1 34350U 97051ES  25360.46638323  .00001300  00000+0  36255-3 0  9995", "line2": "2 34350  86.3274 356.8502 0023531  93.2383  67.9711 14.45418943884912"}}, "geometry": {"type": "Point", "coordinates": [-179.36603453182187, -48.408084758598825]}}, {"type": "Feature", "properties": {"norad_id": 34366, "name": "IRIDIUM 33 DEB", "group": "iridium-33-debris", "lat": -67.47395435603632, "lon": 34.16459759725299, "alt_km": 734.9612963918007, "timestamp": "2025-12-27T07:26:25.605555+00:00", "meta": {"OBJECT_NAME": "IRIDIUM 33 DEB", "OBJECT_ID": "1997-051FJ", "EPOCH": "2025-12-26T03:56:31.227648", "MEAN_MOTION": 14.54157583, "ECCENTRICITY": 0.00230515, "INCLINATION": 86.3679, "RA_OF_ASC_NODE": 43.4727, "ARG_OF_PERICENTER": 98.1181, "MEAN_ANOMALY": 320.0434, "EPHEMERIS_TYPE": 0, "CLASSIFICATION_TYPE": "U", "NORAD_CAT_ID": 34366, "ELEMENT_SET_NO": 999, "REV_AT_EPOCH": 88377, "BSTAR": 0.00085396715, "MEAN_MOTION_DOT": 3.644e-05, "MEAN_MOTION_DDOT": 0}, "tle": {"line1": "1 34366U 97051FJ  25360.16425032  .00003644  00000+0  85397-3 0  9994", "line2": "2 34366  86.3679  43.4727 0023051  98.1181 320.0434 14.54157583883771"}}, "geometry": {"type": "Point", "coordinates": [34.16459759725299, -67.47395435603632]}}, {"type": "Feature", "properties": {"norad_id": 34375, "name": "IRIDIUM 33 DEB", "group": "iridium-33-debris", "lat": 62.734843477449395, "lon": -10.12422233874645, "alt_km": 765.1578683756279, "timestamp": "2025-12-27T07:26:25.605565+00:00", "meta": {"OBJECT_NAME": "IRIDIUM 33 DEB", "OBJECT_ID": "1997-051FT", "EPOCH": "2025-12-26T23:01:44.486688", "MEAN_MOTION": 14.1801844, "ECCENTRICITY": 0.01036759, "INCLINATION": 86.4324, "RA_OF_ASC_NODE": 176.9699, "ARG_OF_PERICENTER": 82.2682, "MEAN_ANOMALY": 46.0207, "EPHEMERIS_TYPE": 0, "CLASSIFICATION_TYPE": "U", "NORAD_CAT_ID": 34375, "ELEMENT_SET_NO": 999, "REV_AT_EPOCH": 86913, "BSTAR": 0.00046620618, "MEAN_MOTION_DOT": 1.026e-05, "MEAN_MOTION_DDOT": 0}, "tle": {"line1": "1 34375U 97051FT  25360.95954267  .00001026  00000+0  46621-3 0  9997", "line2": "2 34375  86.4324 176.9699 0103675  82.2682  46.0207 14.18018440869135"}}, "geometry": {"type": "Point", "coordinates": [-10.12422233874645, 62.734843477449395]}}]}